[{"OBJECT_NAME":"STARLINK-3602","OBJECT_ID":"2022-017Z","EPOCH":"2026-03-09T22:01:53.824512","MEAN_MOTION":15.08872509,"ECCENTRICITY":0.00022315,"INCLINATION":53.2178,"RA_OF_ASC_NODE":348.0946,"ARG_OF_PERICENTER":86.7575,"MEAN_ANOMALY":273.3672,"EPHEMERIS_TYPE":0,"CLASSIFICATION_TYPE":"U","NORAD_CAT_ID":51791,"ELEMENT_SET_NO":999,"REV_AT_EPOCH":22395,"BSTAR":-0.0011195022,"MEAN_MOTION_DOT":-0.00018077,"MEAN_MOTION_DDOT":0},{"OBJECT_NAME":"LEMUR-2-KREMPEL-BRO1","OBJECT_ID":"2025-061G","EPOCH":"2026-03-09T22:19:45.751296","MEAN_MOTION":15.13773226,"ECCENTRICITY":0.0017497,"INCLINATION":97.5535,"RA_OF_ASC_NODE":45.5283,"ARG_OF_PERICENTER":227.946,"MEAN_ANOMALY":132.0284,"EPHEMERIS_TYPE":0,"CLASSIFICATION_TYPE":"U","NORAD_CAT_ID":63357,"ELEMENT_SET_NO":999,"REV_AT_EPOCH":5261,"BSTAR":0.00031891713,"MEAN_MOTION_DOT":5.707e-5,"MEAN_MOTION_DDOT":0}]
